[{"OBJECT_NAME":"SARAL","OBJECT_ID":"2013-009A","EPOCH":"2026-03-09T22:48:24.420096","MEAN_MOTION":14.32828644,"ECCENTRICITY":0.00014927,"INCLINATION":98.5556,"RA_OF_ASC_NODE":256.7632,"ARG_OF_PERICENTER":179.752,"MEAN_ANOMALY":180.3665,"EPHEMERIS_TYPE":0,"CLASSIFICATION_TYPE":"U","NORAD_CAT_ID":39086,"ELEMENT_SET_NO":999,"REV_AT_EPOCH":68139,"BSTAR":7.1114041e-5,"MEAN_MOTION_DOT":1.5e-6,"MEAN_MOTION_DDOT":0},{"OBJECT_NAME":"ARIANE 1 DEB","OBJECT_ID":"1986-019D","EPOCH":"2026-03-09T22:19:23.783232","MEAN_MOTION":14.31242092,"ECCENTRICITY":0.0007901,"INCLINATION":98.269,"RA_OF_ASC_NODE":69.6825,"ARG_OF_PERICENTER":156.2068,"MEAN_ANOMALY":262.7553,"EPHEMERIS_TYPE":0,"CLASSIFICATION_TYPE":"U","NORAD_CAT_ID":16616,"ELEMENT_SET_NO":999,"REV_AT_EPOCH":8404,"BSTAR":0.00021194065,"MEAN_MOTION_DOT":5.19e-6,"MEAN_MOTION_DDOT":0}]
